OBJECT_NAME,OBJECT_ID,EPOCH,MEAN_MOTION,ECCENTRICITY,INCLINATION,RA_OF_ASC_NODE,ARG_OF_PERICENTER,MEAN_ANOMALY,EPHEMERIS_TYPE,CLASSIFICATION_TYPE,NORAD_CAT_ID,ELEMENT_SET_NO,REV_AT_EPOCH,BSTAR,MEAN_MOTION_DOT,MEAN_MOTION_DDOT
ONEWEB-0597,2022-166X,2026-06-25T05:39:31.417920,13.21826579,.00019974,87.9251,242.3862,94.6541,265.4821,0,U,54663,999,17260,-.18628277E-3,-.64E-6,0
ONEWEB-0600,2022-166Y,2026-06-25T03:23:52.816128,13.21824755,.00018139,87.9263,242.3966,98.0128,262.1212,0,U,54664,999,17256,.24031028E-3,.112E-5,0
ONEWEB-0601,2022-166Z,2026-06-25T05:00:43.811424,13.21842786,.00023072,87.9226,242.3945,87.6895,272.4503,0,U,54665,999,17276,.40860796E-2,.1701E-4,0
ONEWEB-0602,2022-166AA,2026-06-25T04:11:06.197856,13.21826695,.00017693,87.9249,242.4116,98.0476,262.0858,0,U,54666,999,17260,-.11449223E-3,-.34E-6,0
ONEWEB-0603,2022-166AB,2026-06-25T04:19:35.541408,13.21826936,.00019881,87.9259,242.3682,96.2769,263.8592,0,U,54667,999,17253,-.86979098E-4,-.23E-6,0
ONEWEB-0604,2022-166AC,2026-06-25T04:02:36.343680,13.21828073,.00020814,87.9260,242.3864,100.4648,259.6721,0,U,54668,999,17249,-.66914357E-4,-.15E-6,0
ONEWEB-0605,2022-166AD,2026-06-25T05:41:57.084864,13.21826673,.00024308,87.9254,242.3854,84.7438,275.3973,0,U,54669,999,17257,-.19496857E-3,-.68E-6,0
ONEWEB-0606,2022-166AE,2026-06-25T04:24:25.949088,13.21827580,.00021482,87.9250,242.4084,103.0524,257.0850,0,U,54670,999,17262,.17686594E-3,.86E-6,0
ONEWEB-0607,2022-166AF,2026-06-25T05:24:59.699808,13.21825021,.00019123,87.9255,242.3716,95.3221,264.8131,0,U,54671,999,17260,-.97824275E-4,-.27E-6,0
ONEWEB-0608,2022-166AG,2026-06-25T05:34:38.844192,13.21827723,.00020777,87.9262,242.3673,82.9376,277.1994,0,U,54672,999,17261,-.19557504E-3,-.68E-6,0
ONEWEB-0610,2022-166AH,2026-06-25T05:05:37.001184,13.21824632,.00018428,87.9249,242.3848,80.2843,279.8499,0,U,54673,999,17251,.31508933E-4,.26E-6,0
ONEWEB-0611,2022-166AJ,2026-06-25T04:55:54.032736,13.21825015,.00021147,87.9248,242.3820,101.7202,258.4169,0,U,54674,999,17250,.20377361E-3,.97E-6,0
ONEWEB-0612,2022-166AK,2026-06-25T03:26:18.527136,13.21825067,.00019139,87.9267,242.3906,92.4041,267.7312,0,U,54675,999,17248,.16364108E-3,.81E-6,0
ONEWEB-0615,2022-166AL,2026-06-25T04:46:14.216160,13.21827194,.00019939,87.9250,242.3935,105.9742,254.1612,0,U,54676,999,17250,-.8802776E-4,-.23E-6,0
ONEWEB-0655,2022-166AM,2026-06-25T04:12:19.230912,13.21827177,.00017803,87.9251,242.3994,96.7963,263.3373,0,U,54677,999,17249,-.81444153E-4,-.21E-6,0
ONEWEB-0659,2022-166AN,2026-06-23T21:43:38.140320,13.21723885,.00029761,87.9206,242.6503,100.5030,259.6439,0,U,54678,999,17241,-.30697555E-1,-.12628E-3,0
ONEWEB-0685,2022-166AP,2026-06-25T04:36:29.127456,13.21847566,.00019303,87.9248,242.3874,88.0020,272.1335,0,U,54679,999,17247,-.78373917E-4,-.19E-6,0
ONEWEB-0712,2022-166AQ,2026-06-25T04:36:02.416032,13.16594393,.00015604,87.9091,227.1853,98.0529,262.0779,0,U,54680,999,17311,-.4078604E-5,.11E-6,0
ONEWEB-0714,2022-166AR,2026-06-25T04:43:48.777312,13.21824724,.00017905,87.9246,242.3841,102.4997,257.6338,0,U,54681,999,17259,-.86332404E-4,-.23E-6,0
ONEWEB-0532,2023-004A,2026-06-25T05:36:22.882752,13.17647158,.00022111,87.9130,4.2634,86.0378,274.1007,0,U,55140,999,16864,-.461136E-6,.13E-6,0
ONEWEB-0533,2023-004B,2026-06-25T05:36:22.557888,13.12444873,.00017355,87.8947,349.0699,86.2755,273.8572,0,U,55141,999,16911,.12146468E-2,.45E-5,0
ONEWEB-0541,2023-004C,2026-06-25T06:28:26.409504,13.11413818,.00019886,87.8891,19.4494,90.8874,269.2482,0,U,55142,999,16700,-.51726078E-3,-.171E-5,0
ONEWEB-0543,2023-004D,2026-06-24T16:12:56.062368,13.18686024,.00016185,87.9168,333.9790,97.2656,262.8661,0,U,55143,999,17068,.21242971E-3,.97E-6,0
ONEWEB-0544,2023-004E,2026-06-25T04:48:03.387744,13.18686177,.00018101,87.9165,333.8744,101.2469,258.8866,0,U,55144,999,17075,.54529805E-4,.34E-6,0
ONEWEB-0560,2023-004F,2026-06-25T04:38:19.861152,13.18687758,.00017294,87.9169,333.8652,103.7368,256.3956,0,U,55145,999,17076,.23541003E-3,.106E-5,0
ONEWEB-0565,2023-004G,2026-06-25T04:28:38.367552,13.18685007,.00021583,87.9159,333.8937,101.8262,258.3112,0,U,55146,999,17075,-.85179217E-4,-.21E-6,0
ONEWEB-0567,2023-004H,2026-06-25T04:18:55.622016,13.18685536,.00020268,87.9167,333.8799,103.8136,256.3222,0,U,55147,999,17075,.54133615E-4,.34E-6,0
ONEWEB-0569,2023-004J,2026-06-25T03:49:08.796576,13.13470028,.00020083,87.8967,318.6327,124.7443,235.3875,0,U,55148,999,17122,.96221694E-3,.364E-5,0
ONEWEB-0570,2023-004K,2026-06-25T04:06:46.596960,13.18685057,.00022621,87.9164,333.8793,91.7463,268.3928,0,U,55149,999,17074,.94067133E-4,.5E-6,0
ONEWEB-0571,2023-004L,2026-06-25T03:57:03.697632,13.18684869,.00026572,87.9168,333.8801,120.2375,239.9020,0,U,55150,999,17075,.70337097E-4,.41E-6,0
