[{"id":"54663","name":"ONEWEB-0597","tle1":"1 54663U 22166X   26176.23578030 -.00000064  00000+0 -18628-3 0  9990","tle2":"2 54663  87.9251 242.3862 0001997  94.6541 265.4821 13.21826579172608"},{"id":"54664","name":"ONEWEB-0600","tle1":"1 54664U 22166Y   26176.14158352  .00000112  00000+0  24031-3 0  9999","tle2":"2 54664  87.9263 242.3966 0001813  98.0128 262.1212 13.21824755172560"},{"id":"54665","name":"ONEWEB-0601","tle1":"1 54665U 22166Z   26176.20884041  .00001701  00000+0  40861-2 0  9991","tle2":"2 54665  87.9226 242.3945 0002307  87.6895 272.4503 13.21842786172764"},{"id":"54666","name":"ONEWEB-0602","tle1":"1 54666U 22166AA  26176.17437729 -.00000034  00000+0 -11449-3 0  9996","tle2":"2 54666  87.9249 242.4116 0001769  98.0476 262.0858 13.21826695172605"},{"id":"54667","name":"ONEWEB-0603","tle1":"1 54667U 22166AB  26176.18027247 -.00000023  00000+0 -86979-4 0  9997","tle2":"2 54667  87.9259 242.3682 0001988  96.2769 263.8592 13.21826936172536"},{"id":"54668","name":"ONEWEB-0604","tle1":"1 54668U 22166AC  26176.16847620 -.00000015  00000+0 -66914-4 0  9999","tle2":"2 54668  87.9260 242.3864 0002081 100.4648 259.6721 13.21828073172496"},{"id":"54669","name":"ONEWEB-0605","tle1":"1 54669U 22166AD  26176.23746626 -.00000068  00000+0 -19497-3 0  9993","tle2":"2 54669  87.9254 242.3854 0002430  84.7438 275.3973 13.21826673172575"},{"id":"54670","name":"ONEWEB-0606","tle1":"1 54670U 22166AE  26176.18363367  .00000086  00000+0  17687-3 0  9993","tle2":"2 54670  87.9250 242.4084 0002148 103.0524 257.0850 13.21827580172621"},{"id":"54671","name":"ONEWEB-0607","tle1":"1 54671U 22166AF  26176.22569097 -.00000027  00000+0 -97824-4 0  9996","tle2":"2 54671  87.9255 242.3716 0001912  95.3221 264.8131 13.21825021172607"},{"id":"54672","name":"ONEWEB-0608","tle1":"1 54672U 22166AG  26176.23239403 -.00000068  00000+0 -19558-3 0  9995","tle2":"2 54672  87.9262 242.3673 0002077  82.9376 277.1994 13.21827723172610"},{"id":"54673","name":"ONEWEB-0610","tle1":"1 54673U 22166AH  26176.21223381  .00000026  00000+0  31509-4 0  9995","tle2":"2 54673  87.9249 242.3848 0001842  80.2843 279.8499 13.21824632172513"},{"id":"54674","name":"ONEWEB-0611","tle1":"1 54674U 22166AJ  26176.20548649  .00000097  00000+0  20377-3 0  9990","tle2":"2 54674  87.9248 242.3820 0002114 101.7202 258.4169 13.21825015172506"},{"id":"54675","name":"ONEWEB-0612","tle1":"1 54675U 22166AK  26176.14326999  .00000081  00000+0  16364-3 0  9990","tle2":"2 54675  87.9267 242.3906 0001913  92.4041 267.7312 13.21825067172483"},{"id":"54676","name":"ONEWEB-0615","tle1":"1 54676U 22166AL  26176.19877565 -.00000023  00000+0 -88028-4 0  9991","tle2":"2 54676  87.9250 242.3935 0001993 105.9742 254.1612 13.21827194172503"},{"id":"54677","name":"ONEWEB-0655","tle1":"1 54677U 22166AM  26176.17522258 -.00000021  00000+0 -81444-4 0  9999","tle2":"2 54677  87.9251 242.3994 0001780  96.7963 263.3373 13.21827177172491"},{"id":"54678","name":"ONEWEB-0659","tle1":"1 54678U 22166AN  26174.90530255 -.00012628  00000+0 -30698-1 0  9993","tle2":"2 54678  87.9206 242.6503 0002976 100.5030 259.6439 13.21723885172412"},{"id":"54679","name":"ONEWEB-0685","tle1":"1 54679U 22166AP  26176.19200379 -.00000019  00000+0 -78374-4 0  9995","tle2":"2 54679  87.9248 242.3874 0001930  88.0020 272.1335 13.21847566172479"},{"id":"54680","name":"ONEWEB-0712","tle1":"1 54680U 22166AQ  26176.19169463  .00000011  00000+0 -40786-5 0  9993","tle2":"2 54680  87.9091 227.1853 0001560  98.0529 262.0779 13.16594393173112"},{"id":"54681","name":"ONEWEB-0714","tle1":"1 54681U 22166AR  26176.19709233 -.00000023  00000+0 -86332-4 0  9999","tle2":"2 54681  87.9246 242.3841 0001790 102.4997 257.6338 13.21824724172597"},{"id":"55140","name":"ONEWEB-0532","tle1":"1 55140U 23004A   26176.23359818  .00000013  00000+0 -46114-6 0  9991","tle2":"2 55140  87.9130   4.2634 0002211  86.0378 274.1007 13.17647158168641"},{"id":"55141","name":"ONEWEB-0533","tle1":"1 55141U 23004B   26176.23359442  .00000450  00000+0  12146-2 0  9993","tle2":"2 55141  87.8947 349.0699 0001735  86.2755 273.8572 13.12444873169119"},{"id":"55142","name":"ONEWEB-0541","tle1":"1 55142U 23004C   26176.26975011 -.00000171  00000+0 -51726-3 0  9993","tle2":"2 55142  87.8891  19.4494 0001988  90.8874 269.2482 13.11413818167001"},{"id":"55143","name":"ONEWEB-0543","tle1":"1 55143U 23004D   26175.67564887  .00000097  00000+0  21243-3 0  9999","tle2":"2 55143  87.9168 333.9790 0001618  97.2656 262.8661 13.18686024170686"},{"id":"55144","name":"ONEWEB-0544","tle1":"1 55144U 23004E   26176.20003921  .00000034  00000+0  54530-4 0  9994","tle2":"2 55144  87.9165 333.8744 0001810 101.2469 258.8866 13.18686177170753"},{"id":"55145","name":"ONEWEB-0560","tle1":"1 55145U 23004F   26176.19328543  .00000106  00000+0  23541-3 0  9990","tle2":"2 55145  87.9169 333.8652 0001729 103.7368 256.3956 13.18687758170760"},{"id":"55146","name":"ONEWEB-0565","tle1":"1 55146U 23004G   26176.18655518 -.00000021  00000+0 -85179-4 0  9999","tle2":"2 55146  87.9159 333.8937 0002158 101.8262 258.3112 13.18685007170755"},{"id":"55147","name":"ONEWEB-0567","tle1":"1 55147U 23004H   26176.17981044  .00000034  00000+0  54134-4 0  9994","tle2":"2 55147  87.9167 333.8799 0002026 103.8136 256.3222 13.18685536170754"},{"id":"55148","name":"ONEWEB-0569","tle1":"1 55148U 23004J   26176.15912959  .00000364  00000+0  96222-3 0  9991","tle2":"2 55148  87.8967 318.6327 0002008 124.7443 235.3875 13.13470028171220"},{"id":"55149","name":"ONEWEB-0570","tle1":"1 55149U 23004K   26176.17137265  .00000050  00000+0  94067-4 0  9991","tle2":"2 55149  87.9164 333.8793 0002262  91.7463 268.3928 13.18685057170740"},{"id":"55150","name":"ONEWEB-0571","tle1":"1 55150U 23004L   26176.16462613  .00000041  00000+0  70337-4 0  9994","tle2":"2 55150  87.9168 333.8801 0002657 120.2375 239.9020 13.18684869170752"}]